NORAD_CAT_ID,OBJECT_NAME,OBJECT_TYPE,EPOCH,MEAN_MOTION,ECCENTRICITY,INCLINATION,RA_OF_ASC_NODE,ARG_OF_PERICENTER,MEAN_ANOMALY,BSTAR,MEAN_MOTION_DOT,MEAN_MOTION_DDOT,TLE_LINE0,TLE_LINE1,TLE_LINE2,SEMIMAJOR_AXIS,PERIOD,APOGEE,PERIGEE,DECAYED
51790.0,STARLINK-3631,PAYLOAD,2023-08-30 12:20:07,15.08840202,0.0001418,53.2176,168.9298,92.2256,267.8899,-1.4407e-05,-5.17e-06,0.0,0 STARLINK-3631,1 51790U 22017Y   23242.51397176 -.00000517  00000-0 -14407-4 0  9991,2 51790  53.2176 168.9298 0001418  92.2256 267.8899 15.08840202 84754,6917.88,95.438,540.726,538.764,0.0
51790.0,STARLINK-3631,PAYLOAD,2023-08-31 04:13:58,15.08841827,0.0001498,53.2171,165.9556,101.2251,258.891,0.0001232,1.673e-05,0.0,0 STARLINK-3631,1 51790U 22017Y   23243.17636715  .00001673  00000-0  12320-3 0  9992,2 51790  53.2171 165.9556 0001498 101.2251 258.8910 15.08841827 84856,6917.875,95.437,540.776,538.704,0.0
51790.0,STARLINK-3631,PAYLOAD,2023-09-01 00:53:59,15.08831565,0.0001103,53.2164,162.0894,89.9779,270.1339,7.3539e-05,8.83e-06,0.0,0 STARLINK-3631,1 51790U 22017Y   23244.03749679  .00000883  00000-0  73539-4 0  9994,2 51790  53.2164 162.0894 0001103  89.9779 270.1339 15.08831565 84985,6917.906,95.438,540.534,539.008,0.0
51790.0,STARLINK-3631,PAYLOAD,2023-09-01 12:01:41,15.08842481,0.0001552,53.2168,160.0086,88.5337,271.5833,3.551e-05,2.77e-06,0.0,0 STARLINK-3631,1 51790U 22017Y   23244.50117230  .00000277  00000-0  35510-4 0  9992,2 51790  53.2168 160.0086 0001552  88.5337 271.5833 15.08842481 85055,6917.873,95.437,540.811,538.664,0.0
51790.0,STARLINK-3631,PAYLOAD,2023-09-01 23:09:22,15.08849812,0.0001601,53.219,157.929,82.2726,277.8448,4.0432e-05,3.56e-06,0.0,0 STARLINK-3631,1 51790U 22017Y   23244.96484657  .00000356  00000-0  40432-4 0  9999,2 51790  53.2190 157.9290 0001601  82.2726 277.8448 15.08849812 85124,6917.85,95.437,540.823,538.608,0.0
51790.0,STARLINK-3631,PAYLOAD,2023-09-02 03:55:31,15.08848803,0.000156,53.2172,157.0336,89.9921,270.125,0.00011639,1.565e-05,0.0,0 STARLINK-3631,1 51790U 22017Y   23245.16356277  .00001565  00000-0  11639-3 0  9997,2 51790  53.2172 157.0336 0001560  89.9921 270.1250 15.08848803 85150,6917.853,95.437,540.798,538.639,0.0
51790.0,STARLINK-3631,PAYLOAD,2023-09-02 18:14:00,15.08839395,0.000201,53.218,154.3537,104.3531,255.7685,6.8542e-06,-1.79e-06,0.0,0 STARLINK-3631,1 51790U 22017Y   23245.75973278 -.00000179  00000-0  68542-5 0  9996,2 51790  53.2180 154.3537 0002010 104.3531 255.7685 15.08839395 85249,6917.882,95.438,541.138,538.357,0.0
51790.0,STARLINK-3631,PAYLOAD,2023-09-03 03:46:19,15.08842167,0.0001396,53.218,152.5723,93.5079,266.6072,9.0024e-06,-1.45e-06,0.0,0 STARLINK-3631,1 51790U 22017Y   23246.15717155 -.00000145  00000-0  90024-5 0  9994,2 51790  53.2180 152.5723 0001396  93.5079 266.6072 15.08842167 85307,6917.874,95.437,540.705,538.773,0.0
51790.0,STARLINK-3631,PAYLOAD,2023-09-04 00:26:20,15.0884006,0.0001391,53.2171,148.7067,89.34,270.7752,-3.9987e-05,-9.24e-06,0.0,0 STARLINK-3631,1 51790U 22017Y   23247.01829564 -.00000924  00000-0 -39987-4 0  9994,2 51790  53.2171 148.7067 0001391  89.3400 270.7752 15.08840060 85436,6917.88,95.438,540.707,538.783,0.0
51790.0,STARLINK-3631,PAYLOAD,2023-09-04 09:58:39,15.08840797,0.0001419,53.2175,146.9229,87.6289,272.4866,-2.7188e-05,-7.21e-06,0.0,0 STARLINK-3631,1 51790U 22017Y   23247.41573534 -.00000721  00000-0 -27188-4 0  9996,2 51790  53.2175 146.9229 0001419  87.6289 272.4866 15.08840797 85495,6917.878,95.438,540.725,538.761,0.0
51790.0,STARLINK-3631,PAYLOAD,2023-09-05 01:52:30,15.08840335,0.0001402,53.2182,143.9527,94.3527,265.7626,8.4921e-05,1.064e-05,0.0,0 STARLINK-3631,1 51790U 22017Y   23248.07813542  .00001064  00000-0  84921-4 0  9992,2 51790  53.2182 143.9527 0001402  94.3527 265.7626 15.08840335 85591,6917.879,95.438,540.714,538.774,0.0
51790.0,STARLINK-3631,PAYLOAD,2023-09-06 01:43:18,15.08838428,0.0001288,53.2181,139.4909,88.9625,271.1515,5.4263e-05,5.76e-06,0.0,0 STARLINK-3631,1 51790U 22017Y   23249.07173939  .00000576  00000-0  54263-4 0  9995,2 51790  53.2181 139.4909 0001288  88.9625 271.1515 15.08838428 85749,6917.885,95.438,540.641,538.859,0.0
51790.0,STARLINK-3631,PAYLOAD,2023-09-06 03:18:41,15.08839845,0.000126,53.2178,139.1928,87.452,272.6616,6.1947e-05,6.98e-06,0.0,0 STARLINK-3631,1 51790U 22017Y   23249.13797849  .00000698  00000-0  61947-4 0  9996,2 51790  53.2178 139.1928 0001260  87.4520 272.6616 15.08839845 85754,6917.881,95.438,540.618,538.874,0.0
51790.0,STARLINK-3631,PAYLOAD,2023-09-07 01:34:05,15.08844085,0.0001263,53.2179,135.0299,89.4867,270.627,2.2794e-05,7.5e-07,0.0,0 STARLINK-3631,1 51790U 22017Y   23250.06533676  .00000075  00000-0  22794-4 0  9992,2 51790  53.2179 135.0299 0001263  89.4867 270.6270 15.08844085 85891,6917.868,95.437,540.607,538.859,0.0
51790.0,STARLINK-3631,PAYLOAD,2023-09-07 15:52:33,15.08839392,0.0001475,53.2165,132.354,88.8321,271.284,2.5497e-05,1.18e-06,0.0,0 STARLINK-3631,1 51790U 22017Y   23250.66149973  .00000118  00000-0  25497-4 0  9992,2 51790  53.2165 132.3540 0001475  88.8321 271.2840 15.08839392 85983,6917.882,95.438,540.768,538.727,0.0
51790.0,STARLINK-3631,PAYLOAD,2023-09-08 01:24:52,15.08841216,0.0001432,53.2171,130.5698,82.8476,277.2679,3.3749e-05,2.49e-06,0.0,0 STARLINK-3631,1 51790U 22017Y   23251.05893857  .00000249  00000-0  33749-4 0  9997,2 51790  53.2171 130.5698 0001432  82.8476 277.2679 15.08841216 86044,6917.877,95.437,540.732,538.751,0.0
51790.0,STARLINK-3631,PAYLOAD,2023-09-08 22:04:52,15.08840543,0.0001316,53.2165,126.704,91.5268,268.5875,6.4558e-05,7.4e-06,0.0,0 STARLINK-3631,1 51790U 22017Y   23251.92005665  .00000740  00000-0  64558-4 0  9993,2 51790  53.2165 126.7040 0001316  91.5268 268.5875 15.08840543 86179,6917.879,95.438,540.654,538.833,0.0
51790.0,STARLINK-3631,PAYLOAD,2023-09-09 01:15:39,15.0884178,0.0001307,53.2166,126.1085,93.2231,266.8911,7.8923e-05,9.68e-06,0.0,0 STARLINK-3631,1 51790U 22017Y   23252.05253526  .00000968  00000-0  78923-4 0  9992,2 51790  53.2166 126.1085 0001307  93.2231 266.8911 15.08841780 86190,6917.875,95.437,540.644,538.836,0.0
51790.0,STARLINK-3631,PAYLOAD,2023-09-09 09:12:34,15.08839403,0.0001371,53.2161,124.6215,91.0892,269.0258,4.4726e-05,4.24e-06,0.0,0 STARLINK-3631,1 51790U 22017Y   23252.38373793  .00000424  00000-0  44726-4 0  9998,2 51790  53.2161 124.6215 0001371  91.0892 269.0258 15.08839403 86247,6917.882,95.438,540.696,538.799,0.0
51790.0,STARLINK-3631,PAYLOAD,2023-09-10 01:06:26,15.08841331,0.0001198,53.2167,121.6481,89.0425,271.0704,5.7026e-05,6.2e-06,0.0,0 STARLINK-3631,1 51790U 22017Y   23253.04613652  .00000620  00000-0  57026-4 0  9998,2 51790  53.2167 121.6481 0001198  89.0425 271.0704 15.08841331 86344,6917.876,95.437,540.57,538.913,0.0
51790.0,STARLINK-3631,PAYLOAD,2023-09-10 18:35:41,15.08834165,0.0001388,53.2173,118.3759,95.8124,264.3027,6.6211e-05,7.66e-06,0.0,0 STARLINK-3631,1 51790U 22017Y   23253.77478071  .00000766  00000-0  66211-4 0  9999,2 51790  53.2173 118.3759 0001388  95.8124 264.3027 15.08834165 86456,6917.898,95.438,540.723,538.803,0.0
51790.0,STARLINK-3631,PAYLOAD,2023-09-11 00:57:13,15.08843014,0.000135,53.2178,117.1862,92.1932,267.9215,-6.5237e-05,-1.326e-05,0.0,0 STARLINK-3631,1 51790U 22017Y   23254.03974057 -.00001326  00000-0 -65237-4 0  9996,2 51790  53.2178 117.1862 0001350  92.1932 267.9215 15.08843014 86494,6917.871,95.437,540.67,538.802,0.0
51790.0,STARLINK-3631,PAYLOAD,2023-09-12 00:48:00,15.08845255,0.0001125,53.2171,112.7268,84.3667,275.7454,4.2438e-05,3.88e-06,0.0,0 STARLINK-3631,1 51790U 22017Y   23255.03333684  .00000388  00000-0  42438-4 0  9995,2 51790  53.2171 112.7268 0001125  84.3667 275.7454 15.08845255 86644,6917.864,95.437,540.508,538.951,0.0
51790.0,STARLINK-3631,PAYLOAD,2023-09-12 18:17:15,15.08834074,0.0001101,53.217,109.4556,88.4413,271.6705,1.6053e-05,-3.2e-07,0.0,0 STARLINK-3631,1 51790U 22017Y   23255.76198675 -.00000032  00000-0  16053-4 0  9995,2 51790  53.2170 109.4556 0001101  88.4413 271.6705 15.08834074 86757,6917.899,95.438,540.525,539.002,0.0
51790.0,STARLINK-3631,PAYLOAD,2023-09-12 21:28:01,15.08838272,0.0001158,53.2169,108.861,87.307,272.8054,5.1668e-05,5.35e-06,0.0,0 STARLINK-3631,1 51790U 22017Y   23255.89446351  .00000535  00000-0  51668-4 0  9994,2 51790  53.2169 108.8610 0001158  87.3070 272.8054 15.08838272 86774,6917.886,95.438,540.552,538.95,0.0
51790.0,STARLINK-3631,PAYLOAD,2023-09-13 18:08:01,15.08847593,0.0001142,53.2172,104.9954,82.3971,277.7151,4.4246e-05,4.17e-06,0.0,0 STARLINK-3631,1 51790U 22017Y   23256.75557706  .00000417  00000-0  44246-4 0  9990,2 51790  53.2172 104.9954 0001142  82.3971 277.7151 15.08847593 86907,6917.857,95.437,540.512,538.932,0.0
51790.0,STARLINK-3631,PAYLOAD,2023-09-13 21:18:47,15.08852649,0.000121,53.2175,104.4008,75.0801,285.0325,8.7064e-05,1.098e-05,0.0,0 STARLINK-3631,1 51790U 22017Y   23256.88805252  .00001098  00000-0  87064-4 0  9997,2 51790  53.2175 104.4008 0001210  75.0801 285.0325 15.08852649 86927,6917.842,95.437,540.544,538.87,0.0
51790.0,STARLINK-3631,PAYLOAD,2023-09-14 00:29:33,15.08855397,0.0001174,53.2173,103.8061,83.2722,276.8404,0.00011336,1.517e-05,0.0,0 STARLINK-3631,1 51790U 22017Y   23257.02052920  .00001517  00000-0  11336-3 0  9994,2 51790  53.2173 103.8061 0001174  83.2722 276.8404 15.08855397 86940,6917.833,95.437,540.51,538.886,0.0
51790.0,STARLINK-3631,PAYLOAD,2023-09-14 19:34:13,15.08827969,0.0001205,53.2175,100.2337,111.2029,248.9092,5.9706e-06,-1.93e-06,0.0,0 STARLINK-3631,1 51790U 22017Y   23257.81543016 -.00000193  00000-0  59706-5 0  9997,2 51790  53.2175 100.2337 0001205 111.2029 248.9092 15.08827969 87067,6917.917,95.438,540.616,538.949,0.0
51790.0,STARLINK-3631,PAYLOAD,2023-09-14 21:09:36,15.08827098,0.0001044,53.2171,99.9357,100.4732,259.6378,2.3908e-05,9.3e-07,0.0,0 STARLINK-3631,1 51790U 22017Y   23257.88167100  .00000093  00000-0  23908-4 0  9992,2 51790  53.2171  99.9357 0001044 100.4732 259.6378 15.08827098 87071,6917.92,95.438,540.507,539.063,0.0
